{
  "type": "FeatureCollection",
  "features": [
    {
      "type": "Feature",
      "properties": {
        "norad_id": 36083,
        "name": "IRIDIUM 33 DEB",
        "group": "iridium-33-debris",
        "lat": 65.89849829375946,
        "lon": 46.399803923678455,
        "alt_km": 758.9707491124582,
        "timestamp": "2025-12-03T08:58:46.388032+00:00",
        "meta_object_name": "IRIDIUM 33 DEB",
        "meta_object_id": "1997-051VQ",
        "meta_epoch": "2025-11-30T10:46:50.880000",
        "meta_mean_motion": 14.43133955,
        "meta_eccentricity": 0.00245074,
        "meta_inclination": 86.345,
        "meta_ra_of_asc_node": 39.4431,
        "meta_arg_of_pericenter": 266.1752,
        "meta_mean_anomaly": 93.6646,
        "meta_ephemeris_type": 0,
        "meta_classification_type": "U",
        "meta_norad_cat_id": 36083,
        "meta_element_set_no": 999,
        "meta_rev_at_epoch": 85272,
        "meta_bstar": 0.00060468289,
        "meta_mean_motion_dot": 2.056e-05,
        "meta_mean_motion_ddot": 0,
        "tle_line1": "1 36083U 97051VQ  25334.44920000  .00002056  00000+0  60468-3 0  9997",
        "tle_line2": "2 36083  86.3450  39.4431 0024507 266.1752  93.6646 14.43133955852725"
      },
      "geometry": {
        "type": "Point",
        "coordinates": [
          46.399803923678455,
          65.89849829375946
        ]
      }
    },
    {
      "type": "Feature",
      "properties": {
        "norad_id": 36390,
        "name": "IRIDIUM 33 DEB",
        "group": "iridium-33-debris",
        "lat": -55.83352864979521,
        "lon": -61.802522554347945,
        "alt_km": 663.940744471427,
        "timestamp": "2025-12-03T08:58:46.388042+00:00",
        "meta_object_name": "IRIDIUM 33 DEB",
        "meta_object_id": "1997-051VU",
        "meta_epoch": "2025-11-30T04:37:26.668128",
        "meta_mean_motion": 14.73329322,
        "meta_eccentricity": 0.00285998,
        "meta_inclination": 86.289,
        "meta_ra_of_asc_node": 305.1428,
        "meta_arg_of_pericenter": 206.0853,
        "meta_mean_anomaly": 153.8925,
        "meta_ephemeris_type": 0,
        "meta_classification_type": "U",
        "meta_norad_cat_id": 36390,
        "meta_element_set_no": 999,
        "meta_rev_at_epoch": 66077,
        "meta_bstar": 0.001268982,
        "meta_mean_motion_dot": 8.29e-05,
        "meta_mean_motion_ddot": 0,
        "tle_line1": "1 36390U 97051VU  25334.19266977  .00008290  00000+0  12690-2 0  9995",
        "tle_line2": "2 36390  86.2890 305.1428 0028599 206.0853 153.8925 14.73329322660771"
      },
      "geometry": {
        "type": "Point",
        "coordinates": [
          -61.802522554347945,
          -55.83352864979521
        ]
      }
    },
    {
      "type": "Feature",
      "properties": {
        "norad_id": 36483,
        "name": "IRIDIUM 33 DEB",
        "group": "iridium-33-debris",
        "lat": 37.69619014668776,
        "lon": -126.30673851533325,
        "alt_km": 729.5942969165808,
        "timestamp": "2025-12-03T08:58:46.388053+00:00",
        "meta_object_name": "IRIDIUM 33 DEB",
        "meta_object_id": "1997-051VZ",
        "meta_epoch": "2025-12-01T23:06:08.589024",
        "meta_mean_motion": 14.45743317,
        "meta_eccentricity": 0.00104053,
        "meta_inclination": 86.3803,
        "meta_ra_of_asc_node": 57.101,
        "meta_arg_of_pericenter": 156.2304,
        "meta_mean_anomaly": 203.9381,
        "meta_ephemeris_type": 0,
        "meta_classification_type": "U",
        "meta_norad_cat_id": 36483,
        "meta_element_set_no": 999,
        "meta_rev_at_epoch": 64990,
        "meta_bstar": 0.00063754459,
        "meta_mean_motion_dot": 2.279e-05,
        "meta_mean_motion_ddot": 0,
        "tle_line1": "1 36483U 97051VZ  25335.96259941  .00002279  00000+0  63754-3 0  9996",
        "tle_line2": "2 36483  86.3803  57.1010 0010405 156.2304 203.9381 14.45743317649902"
      },
      "geometry": {
        "type": "Point",
        "coordinates": [
          -126.30673851533325,
          37.69619014668776
        ]
      }
    },
    {
      "type": "Feature",
      "properties": {
        "norad_id": 36490,
        "name": "IRIDIUM 33 DEB",
        "group": "iridium-33-debris",
        "lat": 78.85238184343598,
        "lon": 175.8755544351817,
        "alt_km": 631.3210036100118,
        "timestamp": "2025-12-03T08:58:46.388063+00:00",
        "meta_object_name": "IRIDIUM 33 DEB",
        "meta_object_id": "1997-051WG",
        "meta_epoch": "2025-12-02T12:59:56.522688",
        "meta_mean_motion": 14.75843044,
        "meta_eccentricity": 0.00054743,
        "meta_inclination": 86.3666,
        "meta_ra_of_asc_node": 15.0624,
        "meta_arg_of_pericenter": 106.2458,
        "meta_mean_anomaly": 253.9363,
        "meta_ephemeris_type": 0,
        "meta_classification_type": "U",
        "meta_norad_cat_id": 36490,
        "meta_element_set_no": 999,
        "meta_rev_at_epoch": 86334,
        "meta_bstar": 0.0019303034,
        "meta_mean_motion_dot": 0.00013277,
        "meta_mean_motion_ddot": 0,
        "tle_line1": "1 36490U 97051WG  25336.54162642  .00013277  00000+0  19303-2 0  9990",
        "tle_line2": "2 36490  86.3666  15.0624 0005474 106.2458 253.9363 14.75843044863348"
      },
      "geometry": {
        "type": "Point",
        "coordinates": [
          175.8755544351817,
          78.85238184343598
        ]
      }
    },
    {
      "type": "Feature",
      "properties": {
        "norad_id": 36493,
        "name": "IRIDIUM 33 DEB",
        "group": "iridium-33-debris",
        "lat": 29.845525781370135,
        "lon": 17.934999137099773,
        "alt_km": 667.3813301414893,
        "timestamp": "2025-12-03T08:58:46.388074+00:00",
        "meta_object_name": "IRIDIUM 33 DEB",
        "meta_object_id": "1997-051WK",
        "meta_epoch": "2025-11-29T09:45:52.591680",
        "meta_mean_motion": 14.64969461,
        "meta_eccentricity": 0.00117036,
        "meta_inclination": 86.359,
        "meta_ra_of_asc_node": 17.6018,
        "meta_arg_of_pericenter": 48.0633,
        "meta_mean_anomaly": 312.1576,
        "meta_ephemeris_type": 0,
        "meta_classification_type": "U",
        "meta_norad_cat_id": 36493,
        "meta_element_set_no": 999,
        "meta_rev_at_epoch": 74323,
        "meta_bstar": 0.0011558423,
        "meta_mean_motion_dot": 6.216e-05,
        "meta_mean_motion_ddot": 0,
        "tle_line1": "1 36493U 97051WK  25333.40685870  .00006216  00000+0  11558-2 0  9997",
        "tle_line2": "2 36493  86.3590  17.6018 0011703  48.0633 312.1576 14.64969461743231"
      },
      "geometry": {
        "type": "Point",
        "coordinates": [
          17.934999137099773,
          29.845525781370135
        ]
      }
    },
    {
      "type": "Feature",
      "properties": {
        "norad_id": 37548,
        "name": "IRIDIUM 33 DEB",
        "group": "iridium-33-debris",
        "lat": -34.63007797346258,
        "lon": 44.91795837021311,
        "alt_km": 732.3704400172091,
        "timestamp": "2025-12-03T08:58:46.388084+00:00",
        "meta_object_name": "IRIDIUM 33 DEB",
        "meta_object_id": "1997-051XH",
        "meta_epoch": "2025-11-29T22:23:36.250944",
        "meta_mean_motion": 14.5113469,
        "meta_eccentricity": 0.00243457,
        "meta_inclination": 86.3524,
        "meta_ra_of_asc_node": 48.9393,
        "meta_arg_of_pericenter": 232.6782,
        "meta_mean_anomaly": 127.2204,
        "meta_ephemeris_type": 0,
        "meta_classification_type": "U",
        "meta_norad_cat_id": 37548,
        "meta_element_set_no": 999,
        "meta_rev_at_epoch": 65346,
        "meta_bstar": 0.0012745087,
        "meta_mean_motion_dot": 5.093e-05,
        "meta_mean_motion_ddot": 0,
        "tle_line1": "1 37548U 97051XH  25333.93305846  .00005093  00000+0  12745-2 0  9990",
        "tle_line2": "2 37548  86.3524  48.9393 0024345 232.6782 127.2204 14.51134690653467"
      },
      "geometry": {
        "type": "Point",
        "coordinates": [
          44.91795837021311,
          -34.63007797346258
        ]
      }
    },
    {
      "type": "Feature",
      "properties": {
        "norad_id": 37550,
        "name": "IRIDIUM 33 DEB",
        "group": "iridium-33-debris",
        "lat": -6.97700422971064,
        "lon": -151.5311405020036,
        "alt_km": 672.6062872414377,
        "timestamp": "2025-12-03T08:58:46.388100+00:00",
        "meta_object_name": "IRIDIUM 33 DEB",
        "meta_object_id": "1997-051XK",
        "meta_epoch": "2025-12-01T10:17:32.492256",
        "meta_mean_motion": 14.66958093,
        "meta_eccentricity": 0.00051706,
        "meta_inclination": 86.3787,
        "meta_ra_of_asc_node": 28.8861,
        "meta_arg_of_pericenter": 137.4218,
        "meta_mean_anomaly": 222.7397,
        "meta_ephemeris_type": 0,
        "meta_classification_type": "U",
        "meta_norad_cat_id": 37550,
        "meta_element_set_no": 999,
        "meta_rev_at_epoch": 86167,
        "meta_bstar": 0.0016356222,
        "meta_mean_motion_dot": 9.181e-05,
        "meta_mean_motion_ddot": 0,
        "tle_line1": "1 37550U 97051XK  25335.42884829  .00009181  00000+0  16356-2 0  9996",
        "tle_line2": "2 37550  86.3787  28.8861 0005170 137.4218 222.7397 14.66958093861674"
      },
      "geometry": {
        "type": "Point",
        "coordinates": [
          -151.5311405020036,
          -6.97700422971064
        ]
      }
    }
  ]
}